CCSDS_OMM_VERS = 2.0
CREATION_DATE  = 
ORIGINATOR     = 

OBJECT_NAME    = STARLINK-36264
OBJECT_ID      = 2026-057P
CENTER_NAME    = EARTH
REF_FRAME      = TEME
TIME_SYSTEM    = UTC
MEAN_ELEMENT_THEORY = SGP/SGP4

EPOCH          = 2026-04-01T12:00:00.998784
MEAN_MOTION    = 15.93836175
ECCENTRICITY   = .0001447
INCLINATION    = 97.2771
RA_OF_ASC_NODE = 214.9422
ARG_OF_PERICENTER = 58.9357
MEAN_ANOMALY   = 41.3254

EPHEMERIS_TYPE = 0
CLASSIFICATION_TYPE = U
NORAD_CAT_ID   = 68307
ELEMENT_SET_NO = 999
REV_AT_EPOCH   = 303
BSTAR          = -.41402E-2
MEAN_MOTION_DOT = -.1489697E-1
MEAN_MOTION_DDOT = .64164E-3

CCSDS_OMM_VERS = 2.0
CREATION_DATE  = 
ORIGINATOR     = 

OBJECT_NAME    = STARLINK-37138
OBJECT_ID      = 2026-057Q
CENTER_NAME    = EARTH
REF_FRAME      = TEME
TIME_SYSTEM    = UTC
MEAN_ELEMENT_THEORY = SGP/SGP4

EPOCH          = 2026-04-01T12:00:00.998784
MEAN_MOTION    = 15.93937471
ECCENTRICITY   = .0001364
INCLINATION    = 97.2763
RA_OF_ASC_NODE = 214.9434
ARG_OF_PERICENTER = 64.1345
MEAN_ANOMALY   = 39.2572

EPHEMERIS_TYPE = 0
CLASSIFICATION_TYPE = U
NORAD_CAT_ID   = 68308
ELEMENT_SET_NO = 999
REV_AT_EPOCH   = 270
BSTAR          = -.4157E-2
MEAN_MOTION_DOT = -.1503516E-1
MEAN_MOTION_DDOT = .65338E-3

CCSDS_OMM_VERS = 2.0
CREATION_DATE  = 
ORIGINATOR     = 

OBJECT_NAME    = STARLINK-37149
OBJECT_ID      = 2026-057R
CENTER_NAME    = EARTH
REF_FRAME      = TEME
TIME_SYSTEM    = UTC
MEAN_ELEMENT_THEORY = SGP/SGP4

EPOCH          = 2026-04-01T12:00:00.998784
MEAN_MOTION    = 15.94037954
ECCENTRICITY   = .0001489
INCLINATION    = 97.2758
RA_OF_ASC_NODE = 214.9449
ARG_OF_PERICENTER = 57.6503
MEAN_ANOMALY   = 49.5345

EPHEMERIS_TYPE = 0
CLASSIFICATION_TYPE = U
NORAD_CAT_ID   = 68309
ELEMENT_SET_NO = 999
REV_AT_EPOCH   = 281
BSTAR          = -.4263E-2
MEAN_MOTION_DOT = -.1549515E-1
MEAN_MOTION_DDOT = .69163E-3

CCSDS_OMM_VERS = 2.0
CREATION_DATE  = 
ORIGINATOR     = 

OBJECT_NAME    = STARLINK-37148
OBJECT_ID      = 2026-057S
CENTER_NAME    = EARTH
REF_FRAME      = TEME
TIME_SYSTEM    = UTC
MEAN_ELEMENT_THEORY = SGP/SGP4

EPOCH          = 2026-04-01T12:00:00.998784
MEAN_MOTION    = 15.94227119
ECCENTRICITY   = .0001642
INCLINATION    = 97.2755
RA_OF_ASC_NODE = 214.9481
ARG_OF_PERICENTER = 61.3839
MEAN_ANOMALY   = 53.6752

EPHEMERIS_TYPE = 0
CLASSIFICATION_TYPE = U
NORAD_CAT_ID   = 68310
ELEMENT_SET_NO = 999
REV_AT_EPOCH   = 292
BSTAR          = -.45167E-2
MEAN_MOTION_DOT = -.1656913E-1
MEAN_MOTION_DDOT = .78478E-3

CCSDS_OMM_VERS = 2.0
CREATION_DATE  = 
ORIGINATOR     = 

OBJECT_NAME    = STARLINK-37140
OBJECT_ID      = 2026-057T
CENTER_NAME    = EARTH
REF_FRAME      = TEME
TIME_SYSTEM    = UTC
MEAN_ELEMENT_THEORY = SGP/SGP4

EPOCH          = 2026-04-01T12:00:00.998784
MEAN_MOTION    = 15.94145765
ECCENTRICITY   = .000162
INCLINATION    = 97.2759
RA_OF_ASC_NODE = 214.9463
ARG_OF_PERICENTER = 61.7555
MEAN_ANOMALY   = 49.5463

EPHEMERIS_TYPE = 0
CLASSIFICATION_TYPE = U
NORAD_CAT_ID   = 68311
ELEMENT_SET_NO = 999
REV_AT_EPOCH   = 308
BSTAR          = -.44779E-2
MEAN_MOTION_DOT = -.16359E-1
MEAN_MOTION_DDOT = .76574E-3

CCSDS_OMM_VERS = 2.0
CREATION_DATE  = 
ORIGINATOR     = 

OBJECT_NAME    = STARLINK-36854
OBJECT_ID      = 2026-057U
CENTER_NAME    = EARTH
REF_FRAME      = TEME
TIME_SYSTEM    = UTC
MEAN_ELEMENT_THEORY = SGP/SGP4

EPOCH          = 2026-04-01T12:00:00.998784
MEAN_MOTION    = 15.94314471
ECCENTRICITY   = .0001623
INCLINATION    = 97.2755
RA_OF_ASC_NODE = 214.9506
ARG_OF_PERICENTER = 58.1246
MEAN_ANOMALY   = 60.6033

EPHEMERIS_TYPE = 0
CLASSIFICATION_TYPE = U
NORAD_CAT_ID   = 68312
ELEMENT_SET_NO = 999
REV_AT_EPOCH   = 287
BSTAR          = -.45993E-2
MEAN_MOTION_DOT = -.1694535E-1
MEAN_MOTION_DDOT = .819E-3

CCSDS_OMM_VERS = 2.0
CREATION_DATE  = 
ORIGINATOR     = 

OBJECT_NAME    = STARLINK-36815
OBJECT_ID      = 2026-057V
CENTER_NAME    = EARTH
REF_FRAME      = TEME
TIME_SYSTEM    = UTC
MEAN_ELEMENT_THEORY = SGP/SGP4

EPOCH          = 2026-04-01T12:00:00.998784
MEAN_MOTION    = 15.94377154
ECCENTRICITY   = .0001662
INCLINATION    = 97.2756
RA_OF_ASC_NODE = 214.9526
ARG_OF_PERICENTER = 63.1555
MEAN_ANOMALY   = 59.8358

EPHEMERIS_TYPE = 0
CLASSIFICATION_TYPE = U
NORAD_CAT_ID   = 68313
ELEMENT_SET_NO = 999
REV_AT_EPOCH   = 287
BSTAR          = -.4672E-2
MEAN_MOTION_DOT = -.1726653E-1
MEAN_MOTION_DDOT = .8487E-3

CCSDS_OMM_VERS = 2.0
CREATION_DATE  = 
ORIGINATOR     = 

OBJECT_NAME    = STARLINK-37155
OBJECT_ID      = 2026-057W
CENTER_NAME    = EARTH
REF_FRAME      = TEME
TIME_SYSTEM    = UTC
MEAN_ELEMENT_THEORY = SGP/SGP4

EPOCH          = 2026-04-01T12:00:00.998784
MEAN_MOTION    = 15.94468130
ECCENTRICITY   = .0001671
INCLINATION    = 97.2749
RA_OF_ASC_NODE = 214.9561
ARG_OF_PERICENTER = 60.9591
MEAN_ANOMALY   = 70.8661

EPHEMERIS_TYPE = 0
CLASSIFICATION_TYPE = U
NORAD_CAT_ID   = 68314
ELEMENT_SET_NO = 999
REV_AT_EPOCH   = 292
BSTAR          = -.46877E-2
MEAN_MOTION_DOT = -.1740622E-1
MEAN_MOTION_DDOT = .86237E-3

CCSDS_OMM_VERS = 2.0
CREATION_DATE  = 
ORIGINATOR     = 

OBJECT_NAME    = STARLINK-37150
OBJECT_ID      = 2026-057X
CENTER_NAME    = EARTH
REF_FRAME      = TEME
TIME_SYSTEM    = UTC
MEAN_ELEMENT_THEORY = SGP/SGP4

EPOCH          = 2026-03-31T22:00:03.999744
MEAN_MOTION    = 15.96094595
ECCENTRICITY   = .0001291
INCLINATION    = 97.2757
RA_OF_ASC_NODE = 214.3247
ARG_OF_PERICENTER = 80.1758
MEAN_ANOMALY   = 299.9935

EPHEMERIS_TYPE = 0
CLASSIFICATION_TYPE = U
NORAD_CAT_ID   = 68315
ELEMENT_SET_NO = 999
REV_AT_EPOCH   = 283
BSTAR          = -.37015168E-2
MEAN_MOTION_DOT = -.1501447E-1
MEAN_MOTION_DDOT = .66654832E-3

CCSDS_OMM_VERS = 2.0
CREATION_DATE  = 
ORIGINATOR     = 

OBJECT_NAME    = STARLINK-37154
OBJECT_ID      = 2026-057Y
CENTER_NAME    = EARTH
REF_FRAME      = TEME
TIME_SYSTEM    = UTC
MEAN_ELEMENT_THEORY = SGP/SGP4

EPOCH          = 2026-03-31T22:00:03.999744
MEAN_MOTION    = 15.96426735
ECCENTRICITY   = .00014126
INCLINATION    = 97.2749
RA_OF_ASC_NODE = 214.3299
ARG_OF_PERICENTER = 59.7010
MEAN_ANOMALY   = 333.0836

EPHEMERIS_TYPE = 0
CLASSIFICATION_TYPE = U
NORAD_CAT_ID   = 68316
ELEMENT_SET_NO = 999
REV_AT_EPOCH   = 273
BSTAR          = -.40671177E-2
MEAN_MOTION_DOT = -.1677419E-1
MEAN_MOTION_DDOT = .82184433E-3

CCSDS_OMM_VERS = 2.0
CREATION_DATE  = 
ORIGINATOR     = 

OBJECT_NAME    = STARLINK-37139
OBJECT_ID      = 2026-057Z
CENTER_NAME    = EARTH
REF_FRAME      = TEME
TIME_SYSTEM    = UTC
MEAN_ELEMENT_THEORY = SGP/SGP4

EPOCH          = 2026-03-31T22:00:03.999744
MEAN_MOTION    = 15.96307243
ECCENTRICITY   = .00013682
INCLINATION    = 97.2751
RA_OF_ASC_NODE = 214.3280
ARG_OF_PERICENTER = 67.0988
MEAN_ANOMALY   = 321.4037

EPHEMERIS_TYPE = 0
CLASSIFICATION_TYPE = U
NORAD_CAT_ID   = 68317
ELEMENT_SET_NO = 999
REV_AT_EPOCH   = 258
BSTAR          = -.38579527E-2
MEAN_MOTION_DOT = -.1582004E-1
MEAN_MOTION_DDOT = .73608291E-3

CCSDS_OMM_VERS = 2.0
CREATION_DATE  = 
ORIGINATOR     = 

OBJECT_NAME    = STARLINK-37113
OBJECT_ID      = 2026-057AA
CENTER_NAME    = EARTH
REF_FRAME      = TEME
TIME_SYSTEM    = UTC
MEAN_ELEMENT_THEORY = SGP/SGP4

EPOCH          = 2026-03-31T22:00:03.999744
MEAN_MOTION    = 15.96523540
ECCENTRICITY   = .00013968
INCLINATION    = 97.2749
RA_OF_ASC_NODE = 214.3318
ARG_OF_PERICENTER = 65.6644
MEAN_ANOMALY   = 331.6084

EPHEMERIS_TYPE = 0
CLASSIFICATION_TYPE = U
NORAD_CAT_ID   = 68318
ELEMENT_SET_NO = 999
REV_AT_EPOCH   = 283
BSTAR          = -.4221347E-2
MEAN_MOTION_DOT = -.1749282E-1
MEAN_MOTION_DDOT = .8896767E-3

