STARLINK-36264          
1 68307U 26057P   26091.50001156 -.01489697  64164-3 -41402-2 0  9993
2 68307  97.2771 214.9422 0001447  58.9357  41.3254 15.93836175  3039
STARLINK-37138          
1 68308U 26057Q   26091.50001156 -.01503516  65338-3 -41570-2 0  9991
2 68308  97.2763 214.9434 0001364  64.1345  39.2572 15.93937471  2701
STARLINK-37149          
1 68309U 26057R   26091.50001156 -.01549515  69163-3 -42630-2 0  9999
2 68309  97.2758 214.9449 0001489  57.6503  49.5345 15.94037954  2815
STARLINK-37148          
1 68310U 26057S   26091.50001156 -.01656913  78478-3 -45167-2 0  9999
2 68310  97.2755 214.9481 0001642  61.3839  53.6752 15.94227119  2929
STARLINK-37140          
1 68311U 26057T   26091.50001156 -.01635900  76574-3 -44779-2 0  9996
2 68311  97.2759 214.9463 0001620  61.7555  49.5463 15.94145765  3086
STARLINK-36854          
1 68312U 26057U   26091.50001156 -.01694535  81900-3 -45993-2 0  9994
2 68312  97.2755 214.9506 0001623  58.1246  60.6033 15.94314471  2876
STARLINK-36815          
1 68313U 26057V   26091.50001156 -.01726653  84870-3 -46720-2 0  9990
2 68313  97.2756 214.9526 0001662  63.1555  59.8358 15.94377154  2879
STARLINK-37155          
1 68314U 26057W   26091.50001156 -.01740622  86237-3 -46877-2 0  9995
2 68314  97.2749 214.9561 0001671  60.9591  70.8661 15.94468130  2927
STARLINK-37150          
1 68315U 26057X   26090.91671296 -.01501447  66655-3 -37015-2 0  9994
2 68315  97.2757 214.3247 0001291  80.1758 299.9935 15.96094595  2839
STARLINK-37154          
1 68316U 26057Y   26090.91671296 -.01677419  82184-3 -40671-2 0  9995
2 68316  97.2749 214.3299 0001412  59.7010 333.0836 15.96426735  2730
STARLINK-37139          
1 68317U 26057Z   26090.91671296 -.01582004  73608-3 -38580-2 0  9998
2 68317  97.2751 214.3280 0001368  67.0988 321.4037 15.96307243  2589
STARLINK-37113          
1 68318U 26057AA  26090.91671296 -.01749282  88968-3 -42213-2 0  9995
2 68318  97.2749 214.3318 0001396  65.6644 331.6084 15.96523540  2836
